{"type": "FeatureCollection", "features": [ {"type": "Feature", "properties": {"norad_id": 35650, "name": "COSMOS 2251 DEB", "group": "cosmos-2251-debris", "lat": 50.00419126498011, "lon": 46.42157209794861, "alt_km": 604.1410217804432, "timestamp": "2025-12-08T21:31:05.062892+00:00", "meta": {"OBJECT_NAME": "COSMOS 2251 DEB", "OBJECT_ID": "1993-036ANR", "EPOCH": "2025-12-08T13:52:28.606368", "MEAN_MOTION": 14.83454584, "ECCENTRICITY": 0.00145176, "INCLINATION": 74.0456, "RA_OF_ASC_NODE": 27.1148, "ARG_OF_PERICENTER": 76.5888, "MEAN_ANOMALY": 76.2684, "EPHEMERIS_TYPE": 0, "CLASSIFICATION_TYPE": "U", "NORAD_CAT_ID": 35650, "ELEMENT_SET_NO": 999, "REV_AT_EPOCH": 87572, "BSTAR": 0.0023000603, "MEAN_MOTION_DOT": 0.00018955, "MEAN_MOTION_DDOT": 0}, "tle": {"line1": "1 35650U 93036ANR 25342.57810887  .00018955  00000+0  23001-2 0  9995", "line2": "2 35650  74.0456  27.1148 0014517  76.5888  76.2684 14.83454584875728"}}, "geometry": {"type": "Point", "coordinates": [46.42157209794861, 50.00419126498011]}}, {"type": "Feature", "properties": {"norad_id": 35660, "name": "COSMOS 2251 DEB", "group": "cosmos-2251-debris", "lat": 73.33298577905758, "lon": -112.47985392093098, "alt_km": 731.1737076381369, "timestamp": "2025-12-08T21:31:05.062902+00:00", "meta": {"OBJECT_NAME": "COSMOS 2251 DEB", "OBJECT_ID": "1993-036APB", "EPOCH": "2025-12-07T17:00:01.687104", "MEAN_MOTION": 14.49901725, "ECCENTRICITY": 0.001834, "INCLINATION": 74.0394, "RA_OF_ASC_NODE": 142.6736, "ARG_OF_PERICENTER": 291.9525, "MEAN_ANOMALY": 83.1689, "EPHEMERIS_TYPE": 0, "CLASSIFICATION_TYPE": "U", "NORAD_CAT_ID": 35660, "ELEMENT_SET_NO": 999, "REV_AT_EPOCH": 65798, "BSTAR": 0.00083521949, "MEAN_MOTION_DOT": 3.208e-05, "MEAN_MOTION_DDOT": 0}, "tle": {"line1": "1 35660U 93036APB 25341.70835286  .00003208  00000+0  83522-3 0  9990", "line2": "2 35660  74.0394 142.6736 0018340 291.9525  83.1689 14.49901725657989"}}, "geometry": {"type": "Point", "coordinates": [-112.47985392093098, 73.33298577905758]}}, {"type": "Feature", "properties": {"norad_id": 35661, "name": "COSMOS 2251 DEB", "group": "cosmos-2251-debris", "lat": -50.36138967006098, "lon": 67.1419377913263, "alt_km": 640.4562578819632, "timestamp": "2025-12-08T21:31:05.062912+00:00", "meta": {"OBJECT_NAME": "COSMOS 2251 DEB", "OBJECT_ID": "1993-036APC", "EPOCH": "2025-12-08T13:41:02.115168", "MEAN_MOTION": 14.86448029, "ECCENTRICITY": 0.00884717, "INCLINATION": 74.013, "RA_OF_ASC_NODE": 88.0398, "ARG_OF_PERICENTER": 193.3855, "MEAN_ANOMALY": 166.4978, "EPHEMERIS_TYPE": 0, "CLASSIFICATION_TYPE": "U", "NORAD_CAT_ID": 35661, "ELEMENT_SET_NO": 999, "REV_AT_EPOCH": 87806, "BSTAR": 0.0014870172, "MEAN_MOTION_DOT": 0.00014102, "MEAN_MOTION_DDOT": 0}, "tle": {"line1": "1 35661U 93036APC 25342.57016337  .00014102  00000+0  14870-2 0  9999", "line2": "2 35661  74.0130  88.0398 0088471 193.3855 166.4978 14.86448029878062"}}, "geometry": {"type": "Point", "coordinates": [67.1419377913263, -50.36138967006098]}}, {"type": "Feature", "properties": {"norad_id": 35663, "name": "COSMOS 2251 DEB", "group": "cosmos-2251-debris", "lat": 56.94800566306163, "lon": -74.05581191993416, "alt_km": 668.9779646350344, "timestamp": "2025-12-08T21:31:05.062922+00:00", "meta": {"OBJECT_NAME": "COSMOS 2251 DEB", "OBJECT_ID": "1993-036APE", "EPOCH": "2025-11-30T11:26:45.384288", "MEAN_MOTION": 14.65332391, "ECCENTRICITY": 0.00074535, "INCLINATION": 74.0171, "RA_OF_ASC_NODE": 148.2949, "ARG_OF_PERICENTER": 219.2944, "MEAN_ANOMALY": 140.7685, "EPHEMERIS_TYPE": 0, "CLASSIFICATION_TYPE": "U", "NORAD_CAT_ID": 35663, "ELEMENT_SET_NO": 999, "REV_AT_EPOCH": 73202, "BSTAR": 0.0015821861, "MEAN_MOTION_DOT": 8.525e-05, "MEAN_MOTION_DDOT": 0}, "tle": {"line1": "1 35663U 93036APE 25334.47691417  .00008525  00000+0  15822-2 0  9999", "line2": "2 35663  74.0171 148.2949 0007453 219.2944 140.7685 14.65332391732024"}}, "geometry": {"type": "Point", "coordinates": [-74.05581191993416, 56.94800566306163]}}, {"type": "Feature", "properties": {"norad_id": 35667, "name": "COSMOS 2251 DEB", "group": "cosmos-2251-debris", "lat": -62.05905332156237, "lon": 0.050328198475023955, "alt_km": 688.9779277227681, "timestamp": "2025-12-08T21:31:05.062932+00:00", "meta": {"OBJECT_NAME": "COSMOS 2251 DEB", "OBJECT_ID": "1993-036APJ", "EPOCH": "2025-12-08T03:56:45.664224", "MEAN_MOTION": 14.59944075, "ECCENTRICITY": 0.00200745, "INCLINATION": 74.0547, "RA_OF_ASC_NODE": 148.8267, "ARG_OF_PERICENTER": 210.1041, "MEAN_ANOMALY": 149.8973, "EPHEMERIS_TYPE": 0, "CLASSIFICATION_TYPE": "U", "NORAD_CAT_ID": 35667, "ELEMENT_SET_NO": 999, "REV_AT_EPOCH": 70736, "BSTAR": 0.0014176974, "MEAN_MOTION_DOT": 6.791e-05, "MEAN_MOTION_DDOT": 0}, "tle": {"line1": "1 35667U 93036APJ 25342.16441741  .00006791  00000+0  14177-2 0  9996", "line2": "2 35667  74.0547 148.8267 0020074 210.1041 149.8973 14.59944075707366"}}, "geometry": {"type": "Point", "coordinates": [0.050328198475023955, -62.05905332156237]}}, {"type": "Feature", "properties": {"norad_id": 35668, "name": "COSMOS 2251 DEB", "group": "cosmos-2251-debris", "lat": -52.07514775701452, "lon": -153.64108011527037, "alt_km": 635.5155978245348, "timestamp": "2025-12-08T21:31:05.062942+00:00", "meta": {"OBJECT_NAME": "COSMOS 2251 DEB", "OBJECT_ID": "1993-036APK", "EPOCH": "2025-12-07T22:48:17.172000", "MEAN_MOTION": 14.63965329, "ECCENTRICITY": 0.00831242, "INCLINATION": 74.0454, "RA_OF_ASC_NODE": 229.7149, "ARG_OF_PERICENTER": 335.9115, "MEAN_ANOMALY": 23.8173, "EPHEMERIS_TYPE": 0, "CLASSIFICATION_TYPE": "U", "NORAD_CAT_ID": 35668, "ELEMENT_SET_NO": 999, "REV_AT_EPOCH": 87577, "BSTAR": 0.00040815606, "MEAN_MOTION_DOT": 2.215e-05, "MEAN_MOTION_DDOT": 0}, "tle": {"line1": "1 35668U 93036APK 25341.95019875  .00002215  00000+0  40816-3 0  9999", "line2": "2 35668  74.0454 229.7149 0083124 335.9115  23.8173 14.63965329875779"}}, "geometry": {"type": "Point", "coordinates": [-153.64108011527037, -52.07514775701452]}}, {"type": "Feature", "properties": {"norad_id": 35669, "name": "COSMOS 2251 DEB", "group": "cosmos-2251-debris", "lat": -34.82263764543907, "lon": 153.98957610832207, "alt_km": 844.1320552065126, "timestamp": "2025-12-08T21:31:05.062952+00:00", "meta": {"OBJECT_NAME": "COSMOS 2251 DEB", "OBJECT_ID": "1993-036APL", "EPOCH": "2025-12-03T21:23:42.149184", "MEAN_MOTION": 13.57134195, "ECCENTRICITY": 0.0387239, "INCLINATION": 73.852, "RA_OF_ASC_NODE": 173.7821, "ARG_OF_PERICENTER": 287.3475, "MEAN_ANOMALY": 68.5633, "EPHEMERIS_TYPE": 0, "CLASSIFICATION_TYPE": "U", "NORAD_CAT_ID": 35669, "ELEMENT_SET_NO": 999, "REV_AT_EPOCH": 60669, "BSTAR": 0.0017031, "MEAN_MOTION_DOT": 1.95e-05, "MEAN_MOTION_DDOT": 0}, "tle": {"line1": "1 35669U 93036APL 25337.89146006  .00001950  00000+0  17031-2 0  9992", "line2": "2 35669  73.8520 173.7821 0387239 287.3475  68.5633 13.57134195606690"}}, "geometry": {"type": "Point", "coordinates": [153.98957610832207, -34.82263764543907]}}, {"type": "Feature", "properties": {"norad_id": 35670, "name": "COSMOS 2251 DEB", "group": "cosmos-2251-debris", "lat": -0.3548109877244829, "lon": -107.60576570753989, "alt_km": 610.5446793328374, "timestamp": "2025-12-08T21:31:05.062963+00:00", "meta": {"OBJECT_NAME": "COSMOS 2251 DEB", "OBJECT_ID": "1993-036APM", "EPOCH": "2025-12-08T12:40:44.894496", "MEAN_MOTION": 14.93746131, "ECCENTRICITY": 0.00374415, "INCLINATION": 73.8955, "RA_OF_ASC_NODE": 73.039, "ARG_OF_PERICENTER": 35.0218, "MEAN_ANOMALY": 325.3416, "EPHEMERIS_TYPE": 0, "CLASSIFICATION_TYPE": "U", "NORAD_CAT_ID": 35670, "ELEMENT_SET_NO": 999, "REV_AT_EPOCH": 87664, "BSTAR": 0.0018203888, "MEAN_MOTION_DOT": 0.00019569, "MEAN_MOTION_DDOT": 0}, "tle": {"line1": "1 35670U 93036APM 25342.52829739  .00019569  00000+0  18204-2 0  9999", "line2": "2 35670  73.8955  73.0390 0037441  35.0218 325.3416 14.93746131876644"}}, "geometry": {"type": "Point", "coordinates": [-107.60576570753989, -0.3548109877244829]}}, {"type": "Feature", "properties": {"norad_id": 35671, "name": "COSMOS 2251 DEB", "group": "cosmos-2251-debris", "lat": 12.101549355750642, "lon": -97.00250091485881, "alt_km": 733.8932594288026, "timestamp": "2025-12-08T21:31:05.062973+00:00", "meta": {"OBJECT_NAME": "COSMOS 2251 DEB", "OBJECT_ID": "1993-036APN", "EPOCH": "2025-12-08T14:11:04.014816", "MEAN_MOTION": 14.48338328, "ECCENTRICITY": 0.00415054, "INCLINATION": 74.0177, "RA_OF_ASC_NODE": 87.0932, "ARG_OF_PERICENTER": 261.8586, "MEAN_ANOMALY": 113.32, "EPHEMERIS_TYPE": 0, "CLASSIFICATION_TYPE": "U", "NORAD_CAT_ID": 35671, "ELEMENT_SET_NO": 999, "REV_AT_EPOCH": 86703, "BSTAR": 0.00046234349, "MEAN_MOTION_DOT": 1.72e-05, "MEAN_MOTION_DDOT": 0}, "tle": {"line1": "1 35671U 93036APN 25342.59101869  .00001720  00000+0  46234-3 0  9999", "line2": "2 35671  74.0177  87.0932 0041505 261.8586 113.3200 14.48338328867038"}}, "geometry": {"type": "Point", "coordinates": [-97.00250091485881, 12.101549355750642]}}, {"type": "Feature", "properties": {"norad_id": 35674, "name": "COSMOS 2251 DEB", "group": "cosmos-2251-debris", "lat": -35.97357059048473, "lon": -48.20667954394943, "alt_km": 671.3807183997815, "timestamp": "2025-12-08T21:31:05.062983+00:00", "meta": {"OBJECT_NAME": "COSMOS 2251 DEB", "OBJECT_ID": "1993-036APR", "EPOCH": "2025-12-08T08:28:43.059360", "MEAN_MOTION": 14.5409058, "ECCENTRICITY": 0.00960975, "INCLINATION": 74.0601, "RA_OF_ASC_NODE": 324.7911, "ARG_OF_PERICENTER": 10.5606, "MEAN_ANOMALY": 349.7543, "EPHEMERIS_TYPE": 0, "CLASSIFICATION_TYPE": "U", "NORAD_CAT_ID": 35674, "ELEMENT_SET_NO": 999, "REV_AT_EPOCH": 86047, "BSTAR": 0.0024998974, "MEAN_MOTION_DOT": 0.00011216, "MEAN_MOTION_DDOT": 0}, "tle": {"line1": "1 35674U 93036APR 25342.35327615  .00011216  00000+0  24999-2 0  9999", "line2": "2 35674  74.0601 324.7911 0096097  10.5606 349.7543 14.54090580860477"}}, "geometry": {"type": "Point", "coordinates": [-48.20667954394943, -35.97357059048473]}}]}